{"phys_par":[],"object":{},"ca_data":[],"vi_data":[],"discovery":{},"alt_orbits":[],"signature":{"source":"NASA/JPL Small-Body Database (SBDB) API","version":"1.0"},"orbit":{"source":"JPL","moid_jup":"4.12582","t_jup":"6.466","condition_code":"0","not_valid_before":null,"rms":".2745","model_pars":[],"orbit_id":"199","producer":"Giorgini","first_obs":"2004-03-15","soln_date":"2017-08-09 01:08:15","two_body":null,"epoch":"2454733.5","elements":[{"value":".1911953048308701","sigma":"5.3461E-9","name":"e","title":"eccentricity","label":"e","units":null},{"value":".9224383019077086","sigma":"4.1547E-10","name":"a","title":"semi-major axis","label":"a","units":"au"},{"value":".7460724295867941","sigma":"4.7439E-9","name":"q","title":"perihelion distance","label":"q","units":"au"},{"value":"3.331369520013644","sigma":"3.5025E-7","name":"i","title":"inclination","label":"i","units":"deg"},{"value":"204.4460289189818","sigma":"2.1065E-5","name":"om","title":"longitude of the ascending node","label":"node","units":"deg"},{"value":"126.401879524849","sigma":"2.0643E-5","name":"w","title":"argument of perihelion","label":"peri","units":"deg"},{"value":"180.429373045644","sigma":"5.4642E-6","name":"ma","title":"mean anomaly","label":"M","units":"deg"},{"value":"2454894.912519503203","sigma":"5.0014E-6","name":"tp","title":"time of perihelion passage","label":"tp","units":"JED"},{"value":"323.596949048484","sigma":"2.1863E-7","name":"per","title":"orbital period","label":"period","units":"d"},{"value":"1.112495037603281","sigma":"7.5161E-10","name":"n","title":"mean motion","label":"n","units":"deg/d"},{"value":"1.098804174228623","sigma":"4.9491E-10","name":"ad","title":"aphelion distance","label":"Q","units":"au"}],"equinox":"J2000","data_arc":"3946","not_valid_after":null,"n_del_obs_used":"17","sb_used":"SB431-N16","n_obs_used":"4481","covariance":{},"comment":null,"pe_used":"DE431","last_obs":"2015-01-03","moid":".000315683","n_dop_obs_used":"29"},"radar_obs":[]}